ONEWEB-0535             
1 54147U 22138AL  26165.42570603  .00000020  00000+0  18673-4 0  9994
2 54147  87.9175 305.5085 0002178  95.9147 264.2234 13.19724986176477
ONEWEB-0536             
1 54148U 22138AM  26165.79533976  .00000077  00000+0  15698-3 0  9992
2 54148  87.9182 274.9346 0002931 109.2498 250.8952 13.20771067178980
ONEWEB-0527             
1 54642U 22166A   26165.60293953  .00001780  00000+0  42790-2 0  9994
2 54642  87.9255 244.5113 0001901 100.5449 259.5899 13.21813394171194
ONEWEB-0528             
1 54643U 22166B   26165.75517873 -.00000092  00000+0 -25509-3 0  9998
2 54643  87.9255 244.4835 0001850 103.1203 257.0137 13.21823752171226
ONEWEB-0539             
1 54644U 22166C   26165.64165501  .00000046  00000+0  80269-4 0  9996
2 54644  87.9261 244.4777 0001993  92.8137 267.3224 13.21826427171208
ONEWEB-0540             
1 54645U 22166D   26165.64851706  .00000040  00000+0  65372-4 0  9998
2 54645  87.9253 244.5067 0002049  95.4637 264.6731 13.21826826171194
ONEWEB-0542             
1 54646U 22166E   26165.65173875  .00000020  00000+0  17310-4 0  9991
2 54646  87.9263 244.4743 0002037  89.6407 270.4961 13.21827093171202
ONEWEB-0545             
1 54647U 22166F   26165.76780105  .00000041  00000+0  66550-4 0  9997
2 54647  87.9254 244.4631 0002167  85.2862 274.8519 13.21827531171181
ONEWEB-0580             
1 54648U 22166G   26165.59117547  .00000033  00000+0  49320-4 0  9990
2 54648  87.9255 244.4981 0002271  89.6524 270.4871 13.21828031171202
ONEWEB-0582             
1 54649U 22166H   26165.78463786  .00000076  00000+0  15358-3 0  9991
2 54649  87.9256 244.4524 0002209  87.7564 272.3823 13.21826512171201
ONEWEB-0583             
1 54650U 22166J   26165.64501065  .00000053  00000+0  97702-4 0  9990
2 54650  87.9253 244.5034 0002065  95.5804 264.5565 13.21827108171197
ONEWEB-0584             
1 54651U 22166K   26165.51380194  .00000105  00000+0  22330-3 0  9997
2 54651  87.9252 244.5149 0002126  96.3513 263.7863 13.21826089171164
ONEWEB-0585             
1 54652U 22166L   26165.76445385 -.00000058  00000+0 -17253-3 0  9996
2 54652  87.9257 244.4519 0002002 103.2192 256.9165 13.21826465171206
ONEWEB-0586             
1 54653U 22166M   26165.77789381 -.00000056  00000+0 -16763-3 0  9998
2 54653  87.9254 244.4749 0002008  94.1740 265.9623 13.21824292171207
ONEWEB-0587             
1 54654U 22166N   26165.63659281  .00000024  00000+0  27398-4 0  9999
2 54654  87.9265 244.4764 0002006 109.0683 251.0668 13.21824047171345
ONEWEB-0589             
1 54655U 22166P   26165.77453137 -.00000036  00000+0 -11780-3 0  9999
2 54655  87.9252 244.4615 0002490  80.0163 280.1252 13.21823729171220
ONEWEB-0590             
1 54656U 22166Q   26165.64824347  .00000022  00000+0  22132-4 0  9998
2 54656  87.9262 244.4765 0002500 101.3045 258.8370 13.21826788171193
ONEWEB-0591             
1 54657U 22166R   26165.66016288 -.00000040  00000+0 -12915-3 0  9997
2 54657  87.9254 244.4888 0002075  98.5525 261.5844 13.21826947171226
ONEWEB-0592             
1 54658U 22166S   26165.66351512 -.00000043  00000+0 -13555-3 0  9994
2 54658  87.9264 244.4662 0002023  98.5073 261.6291 13.21827499171106
ONEWEB-0593             
1 54659U 22166T   26165.76106792 -.00000073  00000+0 -20753-3 0  9995
2 54659  87.9255 244.4586 0001938  94.6382 265.4974 13.21824431171222
ONEWEB-0594             
1 54660U 22166U   26165.78127527  .00000566  00000+0  13382-2 0  9992
2 54660  87.9253 244.4708 0001920 102.7716 257.3632 13.21823990171243
ONEWEB-0595             
1 54661U 22166V   26165.75771176 -.00000085  00000+0 -23688-3 0  9994
2 54661  87.9262 244.4560 0002080 105.5791 254.5572 13.21827347171211
ONEWEB-0596             
1 54662U 22166W   26165.65679399 -.00000029  00000+0 -10117-3 0  9999
2 54662  87.9257 244.4878 0002048 101.7020 258.4344 13.21826651171201
ONEWEB-0597             
1 54663U 22166X   26165.63829032  .00000053  00000+0  97401-4 0  9996
2 54663  87.9253 244.4948 0002039  95.4517 264.6850 13.21826442171205
ONEWEB-0600             
1 54664U 22166Y   26165.77116515 -.00000063  00000+0 -18497-3 0  9997
2 54664  87.9255 244.4597 0001871  96.2431 263.8916 13.21823649171193
ONEWEB-0601             
1 54665U 22166Z   26165.76276139 -.00000056  00000+0 -16826-3 0  9992
2 54665  87.9252 244.4773 0002129  92.3577 267.7800 13.21825803171382
ONEWEB-0602             
1 54666U 22166AA  26165.65258161  .00000014  00000+0  34514-5 0  9994
2 54666  87.9255 244.5053 0001772  94.6953 265.4384 13.21826354171210
ONEWEB-0603             
1 54667U 22166AB  26165.65847834 -.00000013  00000+0 -62028-4 0  9997
2 54667  87.9264 244.4610 0001989  96.1025 264.0335 13.21826361171147
ONEWEB-0604             
1 54668U 22166AC  26165.64669127 -.00000005  00000+0 -44097-4 0  9991
2 54668  87.9263 244.4789 0001994 101.2387 258.8971 13.21827293171107
ONEWEB-0605             
1 54669U 22166AD  26165.63997706  .00000038  00000+0  61201-4 0  9998
2 54669  87.9255 244.4939 0002573  90.9890 269.1539 13.21826403171177
