OBJECT_NAME,OBJECT_ID,EPOCH,MEAN_MOTION,ECCENTRICITY,INCLINATION,RA_OF_ASC_NODE,ARG_OF_PERICENTER,MEAN_ANOMALY,EPHEMERIS_TYPE,CLASSIFICATION_TYPE,NORAD_CAT_ID,ELEMENT_SET_NO,REV_AT_EPOCH,BSTAR,MEAN_MOTION_DOT,MEAN_MOTION_DDOT
ONEWEB-0535,2022-138AL,2026-06-14T10:13:01.000992,13.19724986,.00021787,87.9175,305.5085,95.9147,264.2234,0,U,54147,999,17647,.18673479E-4,.2E-6,0
ONEWEB-0536,2022-138AM,2026-06-14T19:05:17.355264,13.20771067,.0002931,87.9182,274.9346,109.2498,250.8952,0,U,54148,999,17898,.15698E-3,.77E-6,0
ONEWEB-0527,2022-166A,2026-06-14T14:28:13.975392,13.21813394,.0001901,87.9255,244.5113,100.5449,259.5899,0,U,54642,999,17119,.4279E-2,.178E-4,0
ONEWEB-0528,2022-166B,2026-06-14T18:07:27.442272,13.21823752,.000185,87.9255,244.4835,103.1203,257.0137,0,U,54643,999,17122,-.25509E-3,-.92E-6,0
ONEWEB-0539,2022-166C,2026-06-14T15:23:58.992864,13.21826427,.0001993,87.9261,244.4777,92.8137,267.3224,0,U,54644,999,17120,.80269E-4,.46E-6,0
ONEWEB-0540,2022-166D,2026-06-14T15:33:51.873984,13.21826826,.0002049,87.9253,244.5067,95.4637,264.6731,0,U,54645,999,17119,.65372E-4,.4E-6,0
ONEWEB-0542,2022-166E,2026-06-14T15:38:30.228000,13.21827093,.0002037,87.9263,244.4743,89.6407,270.4961,0,U,54646,999,17120,.1731E-4,.2E-6,0
ONEWEB-0545,2022-166F,2026-06-14T18:25:38.010720,13.21827531,.0002167,87.9254,244.4631,85.2862,274.8519,0,U,54647,999,17118,.6655E-4,.41E-6,0
ONEWEB-0580,2022-166G,2026-06-14T14:11:17.560608,13.21828031,.0002271,87.9255,244.4981,89.6524,270.4871,0,U,54648,999,17120,.4932E-4,.33E-6,0
ONEWEB-0582,2022-166H,2026-06-14T18:49:52.711104,13.21826512,.0002209,87.9256,244.4524,87.7564,272.3823,0,U,54649,999,17120,.15358E-3,.76E-6,0
ONEWEB-0583,2022-166J,2026-06-14T15:28:48.920160,13.21827108,.0002065,87.9253,244.5034,95.5804,264.5565,0,U,54650,999,17119,.97702E-4,.53E-6,0
ONEWEB-0584,2022-166K,2026-06-14T12:19:52.487616,13.21826089,.0002126,87.9252,244.5149,96.3513,263.7863,0,U,54651,999,17116,.22330235E-3,.105E-5,0
ONEWEB-0585,2022-166L,2026-06-14T18:20:48.812640,13.21826465,.0002002,87.9257,244.4519,103.2192,256.9165,0,U,54652,999,17120,-.17253E-3,-.58E-6,0
ONEWEB-0586,2022-166M,2026-06-14T18:40:10.025184,13.21824292,.0002008,87.9254,244.4749,94.1740,265.9623,0,U,54653,999,17120,-.16763E-3,-.56E-6,0
ONEWEB-0587,2022-166N,2026-06-14T15:16:41.618784,13.21824047,.0002006,87.9265,244.4764,109.0683,251.0668,0,U,54654,999,17134,.27398E-4,.24E-6,0
ONEWEB-0589,2022-166P,2026-06-14T18:35:19.510368,13.21823729,.000249,87.9252,244.4615,80.0163,280.1252,0,U,54655,999,17122,-.1178E-3,-.36E-6,0
ONEWEB-0590,2022-166Q,2026-06-14T15:33:28.235808,13.21826788,.00025,87.9262,244.4765,101.3045,258.8370,0,U,54656,999,17119,.22132E-4,.22E-6,0
ONEWEB-0591,2022-166R,2026-06-14T15:50:38.072832,13.21826947,.0002075,87.9254,244.4888,98.5525,261.5844,0,U,54657,999,17122,-.12915E-3,-.4E-6,0
ONEWEB-0592,2022-166S,2026-06-14T15:55:27.706368,13.21827499,.0002023,87.9264,244.4662,98.5073,261.6291,0,U,54658,999,17110,-.13555E-3,-.43E-6,0
ONEWEB-0593,2022-166T,2026-06-14T18:15:56.268288,13.21824431,.0001938,87.9255,244.4586,94.6382,265.4974,0,U,54659,999,17122,-.20753E-3,-.73E-6,0
ONEWEB-0594,2022-166U,2026-06-14T18:45:02.183328,13.21823990,.000192,87.9253,244.4708,102.7716,257.3632,0,U,54660,999,17124,.13382E-2,.566E-5,0
ONEWEB-0595,2022-166V,2026-06-14T18:11:06.296064,13.21827347,.000208,87.9262,244.4560,105.5791,254.5572,0,U,54661,999,17121,-.23688E-3,-.85E-6,0
ONEWEB-0596,2022-166W,2026-06-14T15:45:47.000736,13.21826651,.0002048,87.9257,244.4878,101.7020,258.4344,0,U,54662,999,17120,-.10117E-3,-.29E-6,0
ONEWEB-0597,2022-166X,2026-06-14T15:19:08.283648,13.21826442,.0002039,87.9253,244.4948,95.4517,264.6850,0,U,54663,999,17120,.97401E-4,.53E-6,0
ONEWEB-0600,2022-166Y,2026-06-14T18:30:28.668960,13.21823649,.0001871,87.9255,244.4597,96.2431,263.8916,0,U,54664,999,17119,-.18497E-3,-.63E-6,0
ONEWEB-0601,2022-166Z,2026-06-14T18:18:22.584096,13.21825803,.0002129,87.9252,244.4773,92.3577,267.7800,0,U,54665,999,17138,-.16826E-3,-.56E-6,0
ONEWEB-0602,2022-166AA,2026-06-14T15:39:43.051104,13.21826354,.0001772,87.9255,244.5053,94.6953,265.4384,0,U,54666,999,17121,.34514E-5,.14E-6,0
ONEWEB-0603,2022-166AB,2026-06-14T15:48:12.528576,13.21826361,.0001989,87.9264,244.4610,96.1025,264.0335,0,U,54667,999,17114,-.62028E-4,-.13E-6,0
ONEWEB-0604,2022-166AC,2026-06-14T15:31:14.125728,13.21827293,.0001994,87.9263,244.4789,101.2387,258.8971,0,U,54668,999,17110,-.44097E-4,-.5E-7,0
ONEWEB-0605,2022-166AD,2026-06-14T15:21:34.017984,13.21826403,.0002573,87.9255,244.4939,90.9890,269.1539,0,U,54669,999,17117,.61201E-4,.38E-6,0
